IONOSFERA-M 2           
1 61736U 24199B   26170.61916236  .00000035  00000+0  35437-4 0  9991
2 61736  98.7169  43.6763 0000945  37.8711 322.2533 14.22758029131172
PRSC-EO1                
1 62725U 25012A   26170.63125894  .00005274  00000+0  26536-3 0  9998
2 62725  97.4221 243.0436 0004941 241.4639 118.6097 15.17633604 78562
BIOMASS                 
1 63772U 25090A   26169.46532683  .00000158  00000+0  36300-4 0  9991
2 63772  98.0739 356.7637 0001346  96.2561 263.8797 14.67536694 60877
GOSAT-GW (IBUKI GW)     
1 64694U 25141A   26170.57650108  .00000024  00000+0  12719-4 0  9999
2 64694  98.0572 107.8546 0001449  83.2342 276.9028 14.67554519 52191
IONOSFERA-M 3           
1 64876U 25155A   26170.56864875  .00000041  00000+0  38288-4 0  9991
2 64876  98.6032 132.4137 0001147 152.6858 207.4380 14.21486782 46748
IONOSFERA-M 4           
1 64877U 25155B   26170.60348660  .00000035  00000+0  35627-4 0  9993
2 64877  98.6031 132.3651 0001131 120.0119 240.1171 14.21488990 46745
MICROCARB               
1 64899U 25156A   26170.46041259  .00000385  00000+0  68667-4 0  9994
2 64899  97.9831 247.5572 0014992 264.2805  95.6693 14.72327542 48309
CO3D 3                  
1 64900U 25156B   26170.55725232  .00003471  00000+0  16336-3 0  9991
2 64900  97.4328 249.2165 0001600 129.0907 231.0471 15.20210393 49892
CO3D 4                  
1 64901U 25156C   26169.83334906  .00000219  00000+0  13217-4 0  9998
2 64901  97.4333 248.5023 0000112   3.6734 356.4502 15.20208932 49787
CO3D 2                  
1 64902U 25156D   26170.52405858  .00003237  00000+0  15253-3 0  9996
2 64902  97.4328 249.0826 0001513 107.0016 253.1386 15.20211845 49888
CO3D 1                  
1 64903U 25156E   26170.52421191  .00004032  00000+0  18923-3 0  9996
2 64903  97.4326 249.0830 0001349 113.4467 246.6910 15.20211449 49880
PRSC-S1                 
1 65055U 25164A   26170.65063025  .00003455  00000+0  24164-3 0  9998
2 65055  41.1305 273.9386 0006221   0.3756 359.7061 15.06475864 48804
SENTINEL-6B             
1 66514U 25264A   26170.58426147 -.00000052  00000+0  41222-4 0  9996
2 66514  66.0398 130.1996 0008002 269.1481  90.8617 12.80929984 27479
CAS500-3                
1 66655U 25274F   26170.36663789  .00000970  00000+0  11064-3 0  9992
2 66655  97.7445  98.3681 0006825 104.6525 255.5449 14.88325464 30478
CSG-3                   
1 67304U 26001A   26170.49439741  .00000236  00000+0  36262-4 0  9999
2 67304  97.8888 354.0628 0001377  94.9001 265.2370 14.82155084 24806
PRSC-E03                
1 68835U 26092A   26170.44160373  .00002241  00000+0  15535-3 0  9993
2 68835  38.0013  76.3863 0003314  23.0547 337.0363 15.06678453  8291
CAS500-2                
1 69013U 26100AK  26170.45537727  .00005450  00000+0  25135-3 0  9996
2 69013  97.4070  68.2709 0010481  27.8864 332.2931 15.20612584  7159
